CCSDS_OMM_VERS = 2.0
CREATION_DATE  = 
ORIGINATOR     = 

OBJECT_NAME    = STARLINK-36813
OBJECT_ID      = 2026-035P
CENTER_NAME    = EARTH
REF_FRAME      = TEME
TIME_SYSTEM    = UTC
MEAN_ELEMENT_THEORY = SGP/SGP4

EPOCH          = 2026-03-15T06:31:21.251136
MEAN_MOTION    = 15.80828858
ECCENTRICITY   = .00014901
INCLINATION    = 97.2820
RA_OF_ASC_NODE = 6.9510
ARG_OF_PERICENTER = 33.2890
MEAN_ANOMALY   = 326.8471

EPHEMERIS_TYPE = 0
CLASSIFICATION_TYPE = U
NORAD_CAT_ID   = 67892
ELEMENT_SET_NO = 999
REV_AT_EPOCH   = 472
BSTAR          = .21986586E-2
MEAN_MOTION_DOT = .443403E-2
MEAN_MOTION_DDOT = 0

CCSDS_OMM_VERS = 2.0
CREATION_DATE  = 
ORIGINATOR     = 

OBJECT_NAME    = STARLINK-36803
OBJECT_ID      = 2026-035Q
CENTER_NAME    = EARTH
REF_FRAME      = TEME
TIME_SYSTEM    = UTC
MEAN_ELEMENT_THEORY = SGP/SGP4

EPOCH          = 2026-03-15T06:37:51.367872
MEAN_MOTION    = 15.80931565
ECCENTRICITY   = .00018967
INCLINATION    = 97.2835
RA_OF_ASC_NODE = 6.9482
ARG_OF_PERICENTER = 68.7271
MEAN_ANOMALY   = 291.4200

EPHEMERIS_TYPE = 0
CLASSIFICATION_TYPE = U
NORAD_CAT_ID   = 67893
ELEMENT_SET_NO = 999
REV_AT_EPOCH   = 472
BSTAR          = .19006586E-2
MEAN_MOTION_DOT = .382353E-2
MEAN_MOTION_DDOT = 0

CCSDS_OMM_VERS = 2.0
CREATION_DATE  = 
ORIGINATOR     = 

OBJECT_NAME    = STARLINK-36846
OBJECT_ID      = 2026-035R
CENTER_NAME    = EARTH
REF_FRAME      = TEME
TIME_SYSTEM    = UTC
MEAN_ELEMENT_THEORY = SGP/SGP4

EPOCH          = 2026-03-15T06:00:00.999648
MEAN_MOTION    = 15.75158737
ECCENTRICITY   = .0001508
INCLINATION    = 97.2860
RA_OF_ASC_NODE = 6.9192
ARG_OF_PERICENTER = 106.1759
MEAN_ANOMALY   = 87.4209

EPHEMERIS_TYPE = 0
CLASSIFICATION_TYPE = U
NORAD_CAT_ID   = 67894
ELEMENT_SET_NO = 999
REV_AT_EPOCH   = 465
BSTAR          = .42660223E-3
MEAN_MOTION_DOT = .63892E-3
MEAN_MOTION_DDOT = 0

CCSDS_OMM_VERS = 2.0
CREATION_DATE  = 
ORIGINATOR     = 

OBJECT_NAME    = STARLINK-36866
OBJECT_ID      = 2026-035S
CENTER_NAME    = EARTH
REF_FRAME      = TEME
TIME_SYSTEM    = UTC
MEAN_ELEMENT_THEORY = SGP/SGP4

EPOCH          = 2026-03-15T06:34:36.217056
MEAN_MOTION    = 15.80781728
ECCENTRICITY   = .00008397
INCLINATION    = 97.2846
RA_OF_ASC_NODE = 6.9527
ARG_OF_PERICENTER = 60.2900
MEAN_ANOMALY   = 299.8451

EPHEMERIS_TYPE = 0
CLASSIFICATION_TYPE = U
NORAD_CAT_ID   = 67895
ELEMENT_SET_NO = 999
REV_AT_EPOCH   = 472
BSTAR          = .17769688E-2
MEAN_MOTION_DOT = .353871E-2
MEAN_MOTION_DDOT = 0

CCSDS_OMM_VERS = 2.0
CREATION_DATE  = 
ORIGINATOR     = 

OBJECT_NAME    = STARLINK-36877
OBJECT_ID      = 2026-035T
CENTER_NAME    = EARTH
REF_FRAME      = TEME
TIME_SYSTEM    = UTC
MEAN_ELEMENT_THEORY = SGP/SGP4

EPOCH          = 2026-03-15T06:36:46.302624
MEAN_MOTION    = 15.80821386
ECCENTRICITY   = .0002505
INCLINATION    = 97.2828
RA_OF_ASC_NODE = 6.9488
ARG_OF_PERICENTER = 70.2951
MEAN_ANOMALY   = 289.8587

EPHEMERIS_TYPE = 0
CLASSIFICATION_TYPE = U
NORAD_CAT_ID   = 67896
ELEMENT_SET_NO = 999
REV_AT_EPOCH   = 472
BSTAR          = .18463503E-2
MEAN_MOTION_DOT = .368996E-2
MEAN_MOTION_DDOT = 0

CCSDS_OMM_VERS = 2.0
CREATION_DATE  = 
ORIGINATOR     = 

OBJECT_NAME    = STARLINK-36870
OBJECT_ID      = 2026-035U
CENTER_NAME    = EARTH
REF_FRAME      = TEME
TIME_SYSTEM    = UTC
MEAN_ELEMENT_THEORY = SGP/SGP4

EPOCH          = 2026-03-15T02:00:02.204640
MEAN_MOTION    = 15.80943904
ECCENTRICITY   = .00024017
INCLINATION    = 97.2838
RA_OF_ASC_NODE = 6.7512
ARG_OF_PERICENTER = 99.4789
MEAN_ANOMALY   = 260.6750

EPHEMERIS_TYPE = 0
CLASSIFICATION_TYPE = U
NORAD_CAT_ID   = 67897
ELEMENT_SET_NO = 999
REV_AT_EPOCH   = 469
BSTAR          = .24959141E-2
MEAN_MOTION_DOT = .509928E-2
MEAN_MOTION_DDOT = 0

CCSDS_OMM_VERS = 2.0
CREATION_DATE  = 
ORIGINATOR     = 

OBJECT_NAME    = STARLINK-36810
OBJECT_ID      = 2026-035V
CENTER_NAME    = EARTH
REF_FRAME      = TEME
TIME_SYSTEM    = UTC
MEAN_ELEMENT_THEORY = SGP/SGP4

EPOCH          = 2026-03-15T06:32:26.469312
MEAN_MOTION    = 15.80829606
ECCENTRICITY   = .00014009
INCLINATION    = 97.2821
RA_OF_ASC_NODE = 6.9502
ARG_OF_PERICENTER = 59.1779
MEAN_ANOMALY   = 300.9627

EPHEMERIS_TYPE = 0
CLASSIFICATION_TYPE = U
NORAD_CAT_ID   = 67898
ELEMENT_SET_NO = 999
REV_AT_EPOCH   = 472
BSTAR          = .14334969E-2
MEAN_MOTION_DOT = .283738E-2
MEAN_MOTION_DDOT = 0

CCSDS_OMM_VERS = 2.0
CREATION_DATE  = 
ORIGINATOR     = 

OBJECT_NAME    = STARLINK-36878
OBJECT_ID      = 2026-035W
CENTER_NAME    = EARTH
REF_FRAME      = TEME
TIME_SYSTEM    = UTC
MEAN_ELEMENT_THEORY = SGP/SGP4

EPOCH          = 2026-03-15T06:30:16.314624
MEAN_MOTION    = 15.80837556
ECCENTRICITY   = .00014267
INCLINATION    = 97.2820
RA_OF_ASC_NODE = 6.9533
ARG_OF_PERICENTER = 23.7180
MEAN_ANOMALY   = 336.4154

EPHEMERIS_TYPE = 0
CLASSIFICATION_TYPE = U
NORAD_CAT_ID   = 67899
ELEMENT_SET_NO = 999
REV_AT_EPOCH   = 472
BSTAR          = .13460083E-2
MEAN_MOTION_DOT = .265961E-2
MEAN_MOTION_DDOT = 0

CCSDS_OMM_VERS = 2.0
CREATION_DATE  = 
ORIGINATOR     = 

OBJECT_NAME    = STARLINK-36361
OBJECT_ID      = 2026-035X
CENTER_NAME    = EARTH
REF_FRAME      = TEME
TIME_SYSTEM    = UTC
MEAN_ELEMENT_THEORY = SGP/SGP4

EPOCH          = 2026-03-15T06:29:11.712480
MEAN_MOTION    = 15.81127199
ECCENTRICITY   = .00003623
INCLINATION    = 97.2859
RA_OF_ASC_NODE = 6.9560
ARG_OF_PERICENTER = 19.2318
MEAN_ANOMALY   = 340.8964

EPHEMERIS_TYPE = 0
CLASSIFICATION_TYPE = U
NORAD_CAT_ID   = 67900
ELEMENT_SET_NO = 999
REV_AT_EPOCH   = 472
BSTAR          = .17869818E-2
MEAN_MOTION_DOT = .36187E-2
MEAN_MOTION_DDOT = 0

CCSDS_OMM_VERS = 2.0
CREATION_DATE  = 
ORIGINATOR     = 

OBJECT_NAME    = STARLINK-36336
OBJECT_ID      = 2026-035Y
CENTER_NAME    = EARTH
REF_FRAME      = TEME
TIME_SYSTEM    = UTC
MEAN_ELEMENT_THEORY = SGP/SGP4

EPOCH          = 2026-03-15T06:25:56.548704
MEAN_MOTION    = 15.80846855
ECCENTRICITY   = .00012484
INCLINATION    = 97.2856
RA_OF_ASC_NODE = 6.9606
ARG_OF_PERICENTER = 26.0087
MEAN_ANOMALY   = 334.1244

EPHEMERIS_TYPE = 0
CLASSIFICATION_TYPE = U
NORAD_CAT_ID   = 67901
ELEMENT_SET_NO = 999
REV_AT_EPOCH   = 472
BSTAR          = .22241122E-2
MEAN_MOTION_DOT = .449218E-2
MEAN_MOTION_DDOT = 0

CCSDS_OMM_VERS = 2.0
CREATION_DATE  = 
ORIGINATOR     = 

OBJECT_NAME    = STARLINK-36876
OBJECT_ID      = 2026-035Z
CENTER_NAME    = EARTH
REF_FRAME      = TEME
TIME_SYSTEM    = UTC
MEAN_ELEMENT_THEORY = SGP/SGP4

EPOCH          = 2026-03-15T06:28:06.585024
MEAN_MOTION    = 15.80886426
ECCENTRICITY   = .00009477
INCLINATION    = 97.2851
RA_OF_ASC_NODE = 6.9576
ARG_OF_PERICENTER = 13.8255
MEAN_ANOMALY   = 346.3039

EPHEMERIS_TYPE = 0
CLASSIFICATION_TYPE = U
NORAD_CAT_ID   = 67902
ELEMENT_SET_NO = 999
REV_AT_EPOCH   = 472
BSTAR          = .1945736E-2
MEAN_MOTION_DOT = .391032E-2
MEAN_MOTION_DDOT = 0

CCSDS_OMM_VERS = 2.0
CREATION_DATE  = 
ORIGINATOR     = 

OBJECT_NAME    = STARLINK-36257
OBJECT_ID      = 2026-035AA
CENTER_NAME    = EARTH
REF_FRAME      = TEME
TIME_SYSTEM    = UTC
MEAN_ELEMENT_THEORY = SGP/SGP4

EPOCH          = 2026-03-15T06:00:00.999648
MEAN_MOTION    = 15.75125915
ECCENTRICITY   = .00011813
INCLINATION    = 97.2859
RA_OF_ASC_NODE = 6.9349
ARG_OF_PERICENTER = 105.1644
MEAN_ANOMALY   = 124.4414

EPHEMERIS_TYPE = 0
CLASSIFICATION_TYPE = U
NORAD_CAT_ID   = 67903
ELEMENT_SET_NO = 999
REV_AT_EPOCH   = 470
BSTAR          = .11187654E-2
MEAN_MOTION_DOT = .169626E-2
MEAN_MOTION_DDOT = 0

