STARLINK-36813          
1 67892U 26035P   26074.27177374  .00443403  00000+0  21987-2 0  9991
2 67892  97.2820   6.9510 0001490  33.2890 326.8471 15.80828858  4729
STARLINK-36803          
1 67893U 26035Q   26074.27628898  .00382353  00000+0  19007-2 0  9990
2 67893  97.2835   6.9482 0001896  68.7271 291.4200 15.80931565  4727
STARLINK-36846          
1 67894U 26035R   26074.25001157  .00063892  00000+0  42660-3 0  9998
2 67894  97.2860   6.9192 0001508 106.1759  87.4209 15.75158737  4652
STARLINK-36866          
1 67895U 26035S   26074.27403029  .00353871  00000+0  17770-2 0  9997
2 67895  97.2846   6.9527 0000839  60.2900 299.8451 15.80781728  4727
STARLINK-36877          
1 67896U 26035T   26074.27553591  .00368996  00000+0  18464-2 0  9993
2 67896  97.2828   6.9488 0002505  70.2951 289.8587 15.80821386  4727
STARLINK-36870          
1 67897U 26035U   26074.08335885  .00509928  00000+0  24959-2 0  9995
2 67897  97.2838   6.7512 0002401  99.4789 260.6750 15.80943904  4698
STARLINK-36810          
1 67898U 26035V   26074.27252858  .00283738  00000+0  14335-2 0  9990
2 67898  97.2821   6.9502 0001400  59.1779 300.9627 15.80829606  4729
STARLINK-36878          
1 67899U 26035W   26074.27102216  .00265961  00000+0  13460-2 0  9999
2 67899  97.2820   6.9533 0001426  23.7180 336.4154 15.80837556  4726
STARLINK-36361          
1 67900U 26035X   26074.27027445  .00361870  00000+0  17870-2 0  9997
2 67900  97.2859   6.9560 0000362  19.2318 340.8964 15.81127199  4726
STARLINK-36336          
1 67901U 26035Y   26074.26801561  .00449218  00000+0  22241-2 0  9997
2 67901  97.2856   6.9606 0001248  26.0087 334.1244 15.80846855  4721
STARLINK-36876          
1 67902U 26035Z   26074.26952066  .00391032  00000+0  19457-2 0  9990
2 67902  97.2851   6.9576 0000947  13.8255 346.3039 15.80886426  4724
STARLINK-36257          
1 67903U 26035AA  26074.25001157  .00169626  00000+0  11188-2 0  9991
2 67903  97.2859   6.9349 0001181 105.1644 124.4414 15.75125915  4702
